{
    "CCSDS_OMM_VERS": "3.0",
    "COMMENT": "GENERATED VIA SPACE-TRACK.ORG API",
    "CREATION_DATE": "2025-11-23T23:06:32",
    "ORIGINATOR": "18 SPCS",
    "OBJECT_NAME": "NAVSTAR 70 (USA 251)",
    "OBJECT_ID": "2014-026A",
    "CENTER_NAME": "EARTH",
    "REF_FRAME": "TEME",
    "TIME_SYSTEM": "UTC",
    "MEAN_ELEMENT_THEORY": "SGP4",
    "EPOCH": "2025-11-23T13:08:28.378752",
    "MEAN_MOTION": "2.00562812",
    "ECCENTRICITY": "0.00385900",
    "INCLINATION": "56.5906",
    "RA_OF_ASC_NODE": "339.5234",
    "ARG_OF_PERICENTER": "317.7614",
    "MEAN_ANOMALY": "41.9757",
    "EPHEMERIS_TYPE": "0",
    "CLASSIFICATION_TYPE": "U",
    "NORAD_CAT_ID": "39741",
    "ELEMENT_SET_NO": "999",
    "REV_AT_EPOCH": "8441",
    "BSTAR": "0.00000000000000",
    "MEAN_MOTION_DOT": "-0.00000065",
    "MEAN_MOTION_DDOT": "0.0000000000000",
    "SEMIMAJOR_AXIS": "26560.418",
    "PERIOD": "717.980",
    "APOAPSIS": "20284.779",
    "PERIAPSIS": "20079.786",
    "OBJECT_TYPE": "PAYLOAD",
    "RCS_SIZE": "LARGE",
    "COUNTRY_CODE": "US",
    "LAUNCH_DATE": "2014-05-17",
    "SITE": "AFETR",
    "DECAY_DATE": null,
    "FILE": "4896349",
    "GP_ID": "303352222",
    "TLE_LINE0": "0 NAVSTAR 70 (USA 251)",
    "TLE_LINE1": "1 39741U 14026A   25327.54755068 -.00000065  00000-0  00000+0 0  9997",
    "TLE_LINE2": "2 39741  56.5906 339.5234 0038590 317.7614  41.9757  2.00562812 84416"
}